*******************************************************************************
 Revised: January 23, 2020             Saturn                               699
 
 PHYSICAL DATA (updated 2020-Jan-03):
  Mass x10^26 (kg)      = 5.6834          Density (g/cm^3)       =  0.687+-.001
  Equat. radius (1 bar) = 60268+-4 km     Polar radius (km)      = 54364+-10
  Vol. Mean Radius (km) = 58232+-6        Flattening             =  0.09796
  Geometric Albedo      = 0.47            Rocky core mass (Mc/M) =  0.1027
  Sid. rot. period (III)= 10h 39m 22.4s   Sid. rot. rate (rad/s) =  0.000163785 
  Mean solar day, hrs   =~10.656         
  GM (km^3/s^2)         = 37931206.159    GM 1-sigma (km^3/s^2)  = +- 98
  Equ. grav, ge (m/s^2) = 10.44           Pol. grav, gp (m/s^2)  = 12.14+-0.01
  Vis. magnitude V(1,0) = -8.88          
  Vis. mag. (opposition)= +0.67           Obliquity to orbit     = 26.73 deg
  Sidereal orbit period = 29.447498 yr    Sidereal orbit period  = 10755.698 d
  Mean daily motion     = 0.0334979 deg/d Mean orbit velocity    =  9.68 km/s
  Atmos. temp. (1 bar)  = 134+-4 K        Escape speed, km/s    =  35.5          
  Aroche(ice)/Rp        =  2.71           Hill's sphere rad. Rp  = 1100
                                 Perihelion  Aphelion    Mean
  Solar Constant (W/m^2)         16.8        13.6        15.1
  Maximum Planetary IR (W/m^2)    4.7         4.5         4.6
  Minimum Planetary IR (W/m^2)    4.7         4.5         4.6
*******************************************************************************
 
 
*******************************************************************************
Ephemeris / WWW_USER Mon Jan 27 11:00:11 2020 Pasadena, USA      / Horizons    
*******************************************************************************
Target body name: Saturn (699)                    {source: sat427l_merged_DE438}
Center body name: Sun (10)                        {source: sat427l_merged_DE438}
Center-site name: BODY CENTER
*******************************************************************************
Start time      : A.D. 2019-Oct-15 00:00:00.0000 TDB
Stop  time      : A.D. 2022-Jul-11 00:00:00.0000 TDB
Step-size       : 1440 minutes
*******************************************************************************
Center geodetic : 0.00000000,0.00000000,0.0000000 {E-lon(deg),Lat(deg),Alt(km)}
Center cylindric: 0.00000000,0.00000000,0.0000000 {E-lon(deg),Dxy(km),Dz(km)}
Center radii    : 696000.0 x 696000.0 x 696000.0 k{Equator, meridian, pole}    
Output units    : KM-S                                                         
Output type     : GEOMETRIC cartesian states
Output format   : 2 (position and velocity)
Reference frame : ICRF/J2000.0                                                 
Coordinate systm: Ecliptic and Mean Equinox of Reference Epoch                 
*******************************************************************************
            JDTDB,            Calendar Date (TDB),                      X,                      Y,                      Z,                     VX,                     VY,                     VZ,
**************************************************************************************************************************************************************************************************
$$SOE
2458936.500000000, A.D. 2020-Mar-28 00:00:00.0000,  6.306980793815458E+08, -1.360651535983353E+09, -1.447646870118558E+06,  8.241904681459925E+00,  4.037893703964935E+00, -3.975695770829479E-01,
2458937.500000000, A.D. 2020-Mar-29 00:00:00.0000,  6.314101071670763E+08, -1.360302470096282E+09, -1.481993856519639E+06,  8.240259579375859E+00,  4.042348494065901E+00, -3.975104594690133E-01,
2458938.500000000, A.D. 2020-Mar-30 00:00:00.0000,  6.321220005812601E+08, -1.359953008288374E+09, -1.516342224503219E+06,  8.238724055149538E+00,  4.047109282080237E+00, -3.976206749682816E-01,
2458939.500000000, A.D. 2020-Mar-31 00:00:00.0000,  6.328337510821741E+08, -1.359603124395648E+09, -1.550704705175042E+06,  8.236951050911404E+00,  4.052060261738301E+00, -3.978070747263218E-01,
2458940.500000000, A.D. 2020-Apr-01 00:00:00.0000,  6.335453426173106E+08, -1.359252809910080E+09, -1.585084179994166E+06,  8.235047301800666E+00,  4.057092093723165E+00, -3.980218951887529E-01,
2458941.500000000, A.D. 2020-Apr-02 00:00:00.0000,  6.342567609301447E+08, -1.358902057816637E+09, -1.619482857387185E+06,  8.232949774817083E+00,  4.062164020682519E+00, -3.982392512925850E-01,
2458942.500000000, A.D. 2020-Apr-03 00:00:00.0000,  6.349679914446597E+08, -1.358550866495700E+09, -1.653900168196917E+06,  8.230676605373633E+00,  4.067256014972496E+00, -3.984489418004389E-01,
2458943.500000000, A.D. 2020-Apr-04 00:00:00.0000,  6.356790186283121E+08, -1.358199239135795E+09, -1.688332931938708E+06,  8.228279677656424E+00,  4.072268139243250E+00, -3.986065159316743E-01,
2458944.500000000, A.D. 2020-Apr-05 00:00:00.0000,  6.363898312069145E+08, -1.357847178317647E+09, -1.722778822621703E+06,  8.225665209387971E+00,  4.077258150960931E+00, -3.987320127199905E-01,
2458945.500000000, A.D. 2020-Apr-06 00:00:00.0000,  6.371004103650156E+08, -1.357494698174119E+09, -1.757228763024151E+06,  8.222952475529501E+00,  4.081960017279570E+00, -3.986998477433230E-01,
2458946.500000000, A.D. 2020-Apr-07 00:00:00.0000,  6.378107603225648E+08, -1.357141818198005E+09, -1.791673088780284E+06,  8.220329356782088E+00,  4.086542714749767E+00, -3.986145746462286E-01,
2458947.500000000, A.D. 2020-Apr-08 00:00:00.0000,  6.385208850403328E+08, -1.356788548238762E+09, -1.826107191178799E+06,  8.217760554030262E+00,  4.090992557325216E+00, -3.984677540405483E-01,
2458948.500000000, A.D. 2020-Apr-09 00:00:00.0000,  6.392307899778435E+08, -1.356434898238518E+09, -1.860526539952874E+06,  8.215245219700270E+00,  4.095316319516330E+00, -3.982614714956951E-01,
2458949.500000000, A.D. 2020-Apr-10 00:00:00.0000,  6.399404859398280E+08, -1.356080880572021E+09, -1.894925935169339E+06,  8.212929126880651E+00,  4.099539414134442E+00, -3.980246903935165E-01,
2458950.500000000, A.D. 2020-Apr-11 00:00:00.0000,  6.406499871710964E+08, -1.355726499455628E+09, -1.929304661106586E+06,  8.210740518092887E+00,  4.103702309740656E+00, -3.977694600614401E-01,
2458951.500000000, A.D. 2020-Apr-12 00:00:00.0000,  6.413593133896738E+08, -1.355371761586515E+09, -1.963661236136198E+06,  8.208904109986648E+00,  4.107867719755742E+00, -3.975504222083117E-01,
2458952.500000000, A.D. 2020-Apr-13 00:00:00.0000,  6.420684876979635E+08, -1.355016652474696E+09, -1.998005450990379E+06,  8.207169084748365E+00,  4.112270170118332E+00, -3.974652128646061E-01,
2458953.500000000, A.D. 2020-Apr-14 00:00:00.0000,  6.427775139176351E+08, -1.354661156701475E+09, -2.032345794526279E+06,  8.205468651734648E+00,  4.116826825507833E+00, -3.974637821421758E-01,
2458954.500000000, A.D. 2020-Apr-15 00:00:00.0000,  6.434863927025750E+08, -1.354305261446095E+09, -2.066688938928366E+06,  8.203768815182444E+00,  4.121513367817108E+00, -3.975297489243443E-01,
2458955.500000000, A.D. 2020-Apr-16 00:00:00.0000,  6.441951243433133E+08, -1.353948952446659E+09, -2.101042331431866E+06,  8.202023447942580E+00,  4.126418787649746E+00, -3.977041336291793E-01,
2458956.500000000, A.D. 2020-Apr-17 00:00:00.0000,  6.449036958920819E+08, -1.353592214032075E+09, -2.135412757737815E+06,  8.200086337107443E+00,  4.131414110025585E+00, -3.979064193318438E-01,
2458957.500000000, A.D. 2020-Apr-18 00:00:00.0000,  6.456120960936913E+08, -1.353235038553703E+09, -2.169803115013957E+06,  8.198002868599245E+00,  4.136563433573230E+00, -3.981742932810628E-01,
2458958.500000000, A.D. 2020-Apr-19 00:00:00.0000,  6.463203006456865E+08, -1.352877418257791E+09, -2.204215096563160E+06,  8.195594523445880E+00,  4.141654410832686E+00, -3.983815163557693E-01,
2458959.500000000, A.D. 2020-Apr-20 00:00:00.0000,  6.470282917087573E+08, -1.352519364292390E+09, -2.238641213362157E+06,  8.193076435128555E+00,  4.146611893616672E+00, -3.985078718857342E-01,
2458960.500000000, A.D. 2020-Apr-21 00:00:00.0000,  6.477360626724476E+08, -1.352160886547177E+09, -2.273075693739176E+06,  8.190507514814541E+00,  4.151473652761941E+00, -3.985811273571163E-01,
2458961.500000000, A.D. 2020-Apr-22 00:00:00.0000,  6.484436074227273E+08, -1.351801990718878E+09, -2.307515076673865E+06,  8.187808025950023E+00,  4.156269661266882E+00, -3.986078452784074E-01,
2458962.500000000, A.D. 2020-Apr-23 00:00:00.0000,  6.491509162251250E+08, -1.351442691290747E+09, -2.341951006866872E+06,  8.185110010496778E+00,  4.160828691520418E+00, -3.985139080503091E-01,
2458963.500000000, A.D. 2020-Apr-24 00:00:00.0000,  6.498579938336303E+08, -1.351083001756012E+09, -2.376377070016742E+06,  8.182421245429504E+00,  4.165279511449595E+00, -3.983655173733964E-01,
2458964.500000000, A.D. 2020-Apr-25 00:00:00.0000,  6.505648434477597E+08, -1.350722938540039E+09, -2.410785172281086E+06,  8.179889274050973E+00,  4.169495685279442E+00, -3.981120738271238E-01,
2458965.500000000, A.D. 2020-Apr-26 00:00:00.0000,  6.512714859019961E+08, -1.350362513189096E+09, -2.445171393242955E+06,  8.177598937592432E+00,  4.173688957209147E+00, -3.978708574005461E-01,
2458966.500000000, A.D. 2020-Apr-27 00:00:00.0000,  6.519779374175313E+08, -1.350001724931849E+09, -2.479537889459729E+06,  8.175467919114386E+00,  4.177906175105330E+00, -3.976598824320607E-01,
2458967.500000000, A.D. 2020-Apr-28 00:00:00.0000,  6.526842085609355E+08, -1.349640571219505E+09, -2.513887094900787E+06,  8.173436009739676E+00,  4.182115230621100E+00, -3.974548343417392E-01,
2458968.500000000, A.D. 2020-Apr-29 00:00:00.0000,  6.533903169230143E+08, -1.349279052389057E+09, -2.548220635863006E+06,  8.171688473353846E+00,  4.186426464546331E+00, -3.973311441185710E-01,
